[{"OBJECT_NAME":"STARLINK-3586","OBJECT_ID":"2022-017AD","EPOCH":"2026-03-09T23:32:02.658912","MEAN_MOTION":15.08837334,"ECCENTRICITY":0.00014579,"INCLINATION":53.2205,"RA_OF_ASC_NODE":348.0014,"ARG_OF_PERICENTER":127.8796,"MEAN_ANOMALY":232.2328,"EPHEMERIS_TYPE":0,"CLASSIFICATION_TYPE":"U","NORAD_CAT_ID":51795,"ELEMENT_SET_NO":999,"REV_AT_EPOCH":22396,"BSTAR":-0.00017054062,"MEAN_MOTION_DOT":-3.001e-5,"MEAN_MOTION_DDOT":0},{"OBJECT_NAME":"CZ-4B DEB","OBJECT_ID":"2010-051H","EPOCH":"2026-03-08T15:03:50.230080","MEAN_MOTION":14.83710316,"ECCENTRICITY":0.01132064,"INCLINATION":97.7035,"RA_OF_ASC_NODE":129.0061,"ARG_OF_PERICENTER":211.6401,"MEAN_ANOMALY":147.7975,"EPHEMERIS_TYPE":0,"CLASSIFICATION_TYPE":"U","NORAD_CAT_ID":38326,"ELEMENT_SET_NO":999,"REV_AT_EPOCH":80705,"BSTAR":0.001509593,"MEAN_MOTION_DOT":0.00013943,"MEAN_MOTION_DDOT":0}]
